

*******************************************************************************
Ephemeris / WWW_USER Fri May 20 08:56:27 2022 Pasadena, USA      / Horizons
*******************************************************************************
Target body name: 1647 Menelaus (1957 MK)         {source: JPL#45}
Center body name: Solar System Barycenter (0)     {source: DE441}
Center-site name: BODY CENTER
*******************************************************************************
Start time      : A.D. 1800-Jan-01 00:00:00.0000 TDB
Stop  time      : A.D. 2022-Jul-19 00:00:00.0000 TDB
Step-size       : 86400 minutes
*******************************************************************************
Center geodetic : 0.00000000,0.00000000,0.0000000 {E-lon(deg),Lat(deg),Alt(km)}
Center cylindric: 0.00000000,0.00000000,0.0000000 {E-lon(deg),Dxy(km),Dz(km)}
Center radii    : (undefined)                                                  
Small perturbers: Yes                             {source: SB441-N16}
Output units    : KM-D
Output type     : GEOMETRIC cartesian states
Output format   : 1 (position only)
Reference frame : ICRF
*******************************************************************************
Initial IAU76/J2000 heliocentric ecliptic osculating elements (au, days, deg.):
  EPOCH=  2457577.5 ! 2016-Jul-08.00 (TDB)         Residual RMS= .23913        
   EC= .0222541789993519   QR= 5.098776579327465   TP= 2456983.9123927536      
   OM= 240.3161462067316   W=  299.3342896448588   IN= 5.649966356422364       
  Equivalent ICRF heliocentric cartesian coordinates (au, au/d):
   X=-3.249296734642639E+00  Y=-3.620201587251248E+00  Z=-1.661291458450406E+00
  VX= 5.801472120338012E-03 VY=-4.806068711167916E-03 VZ=-1.277612822813888E-03
Asteroid physical parameters (km, seconds, rotational period in hours):        
   GM= n.a.                RAD= 21.358             ROTPER= 17.74               
   H= 10.53                G= .150                 B-V= n.a.                   
                           ALBEDO= .056            STYP= n.a.                  
*******************************************************************************
            JDTDB,            Calendar Date (TDB),                      X,                      Y,                      Z,
**************************************************************************************************************************
$$SOE
2393136.500000000, A.D. 1840-Feb-01 00:00:00.0000,  2.080942264685048E+08, -7.295499131076782E+08, -2.565253126546543E+08,
2393196.500000000, A.D. 1840-Apr-01 00:00:00.0000,  2.711928862841269E+08, -7.147028288310635E+08, -2.450941765780439E+08,
2393256.500000000, A.D. 1840-May-31 00:00:00.0000,  3.324274010937133E+08, -6.949409343787013E+08, -2.319773234305349E+08,
2393316.500000000, A.D. 1840-Jul-30 00:00:00.0000,  3.913918700612573E+08, -6.704313290381100E+08, -2.172753280630870E+08,
2393376.500000000, A.D. 1840-Sep-28 00:00:00.0000,  4.476996442872175E+08, -6.413686846475785E+08, -2.010974101421601E+08,
2393436.500000000, A.D. 1840-Nov-27 00:00:00.0000,  5.009848342503441E+08, -6.079735670826244E+08, -1.835606607660611E+08,
2393496.500000000, A.D. 1841-Jan-26 00:00:00.0000,  5.509036626782855E+08, -5.704907552274162E+08, -1.647892834185728E+08,
2393556.500000000, A.D. 1841-Mar-27 00:00:00.0000,  5.971356914974889E+08, -5.291875821166207E+08, -1.449138542341729E+08,
2393616.500000000, A.D. 1841-May-26 00:00:00.0000,  6.393849337332860E+08, -4.843522949815208E+08, -1.240706001201283E+08,
2393676.500000000, A.D. 1841-Jul-25 00:00:00.0000,  6.773808684925251E+08, -4.362924346757268E+08, -1.024006930771237E+08,
2393736.500000000, A.D. 1841-Sep-23 00:00:00.0000,  7.108793784073374E+08, -3.853332270226048E+08, -8.004955652000819E+07,
2393796.500000000, A.D. 1841-Nov-22 00:00:00.0000,  7.396636286596872E+08, -3.318159931063398E+08, -5.716618321830363E+07,
2393856.500000000, A.D. 1842-Jan-21 00:00:00.0000,  7.635448862626567E+08, -2.760965618307693E+08, -3.390246032959610E+07,
2393916.500000000, A.D. 1842-Mar-22 00:00:00.0000,  7.823632976666325E+08, -2.185436756783983E+08, -1.041249560014529E+07,
2393976.500000000, A.D. 1842-May-21 00:00:00.0000,  7.959886339222114E+08, -1.595373824013783E+08,  1.314805909703745E+07,
2394036.500000000, A.D. 1842-Jul-20 00:00:00.0000,  8.043210023593435E+08, -9.946740333796491E+07,  3.662268997139430E+07,
2394096.500000000, A.D. 1842-Sep-18 00:00:00.0000,  8.072915229624431E+08, -3.873145771832193E+07,  5.985471651633593E+07,
2394156.500000000, A.D. 1842-Nov-17 00:00:00.0000,  8.048629769452384E+08,  2.226646549143142E+07,  8.268800459069292E+07,
2394216.500000000, A.D. 1843-Jan-16 00:00:00.0000,  7.970304201416188E+08,  8.311790026471607E+07,  1.049677008063520E+08,
2394276.500000000, A.D. 1843-Mar-17 00:00:00.0000,  7.838217434482560E+08,  1.434117742286075E+08,  1.265409908958570E+08,
2394336.500000000, A.D. 1843-May-16 00:00:00.0000,  7.652981775887380E+08,  2.027363778949606E+08,  1.472578907920463E+08,
2394396.500000000, A.D. 1843-Jul-15 00:00:00.0000,  7.415547306153815E+08,  2.606814338167870E+08,  1.669720693723889E+08,
2394456.500000000, A.D. 1843-Sep-13 00:00:00.0000,  7.127205294216734E+08,  3.168402808048736E+08,  1.855417057501636E+08,
2394516.500000000, A.D. 1843-Nov-12 00:00:00.0000,  6.789590469162431E+08,  3.708121805965453E+08,  2.028303823560894E+08,
2394576.500000000, A.D. 1844-Jan-11 00:00:00.0000,  6.404681946570730E+08,  4.222047578708221E+08,  2.187080167799123E+08,
2394636.500000000, A.D. 1844-Mar-11 00:00:00.0000,  5.974802518705333E+08,  4.706365640515149E+08,  2.330518246323183E+08,
2394696.500000000, A.D. 1844-May-10 00:00:00.0000,  5.502615887749193E+08,  5.157397714573309E+08,  2.457473132572235E+08,
2394756.500000000, A.D. 1844-Jul-09 00:00:00.0000,  4.991121660008907E+08,  5.571629904213234E+08,  2.566893013522791E+08,
2394816.500000000, A.D. 1844-Sep-07 00:00:00.0000,  4.443647687082809E+08,  5.945741943397962E+08,  2.657829549808993E+08,
2394876.500000000, A.D. 1844-Nov-06 00:00:00.0000,  3.863839393099358E+08,  6.276637298212060E+08,  2.729448276732652E+08,
2394936.500000000, A.D. 1845-Jan-05 00:00:00.0000,  3.255645722125972E+08,  6.561473945138119E+08,  2.781038957931689E+08,
2394996.500000000, A.D. 1845-Mar-06 00:00:00.0000,  2.623301489974522E+08,  6.797695470236560E+08,  2.812025721418425E+08,
2395056.500000000, A.D. 1845-May-05 00:00:00.0000,  1.971305746869350E+08,  6.983061991263661E+08,  2.821976759612200E+08,
2395116.500000000, A.D. 1845-Jul-04 00:00:00.0000,  1.304395915089933E+08,  7.115680481931529E+08,  2.810613415487536E+08,
2395176.500000000, A.D. 1845-Sep-02 00:00:00.0000,  6.275175920709532E+07,  7.194033992521797E+08,  2.777818449397513E+08,
2395236.500000000, A.D. 1845-Nov-01 00:00:00.0000, -5.421004025543080E+06,  7.217009017672604E+08,  2.723643190962665E+08,
2395296.500000000, A.D. 1845-Dec-31 00:00:00.0000, -7.355332408786473E+07,  7.183920365288152E+08,  2.648313341137579E+08,
2395356.500000000, A.D. 1846-Mar-01 00:00:00.0000, -1.411106960576680E+08,  7.094532854382091E+08,  2.552233180805992E+08,
2395416.500000000, A.D. 1846-Apr-30 00:00:00.0000, -2.075541977175345E+08,  6.949079129484477E+08,  2.435987944179952E+08,
2395476.500000000, A.D. 1846-Jun-29 00:00:00.0000, -2.723455456515390E+08,  6.748272704256594E+08,  2.300344073407002E+08,
2395536.500000000, A.D. 1846-Aug-28 00:00:00.0000, -3.349524418907469E+08,  6.493315733990136E+08,  2.146247212199719E+08,
2395596.500000000, A.D. 1846-Oct-27 00:00:00.0000, -3.948541208428688E+08,  6.185900851551045E+08,  1.974817762956268E+08,
2395656.500000000, A.D. 1846-Dec-26 00:00:00.0000, -4.515470130527961E+08,  5.828206527790629E+08,  1.787343890956682E+08,
2395716.500000000, A.D. 1847-Feb-24 00:00:00.0000, -5.045504202586435E+08,  5.422885576825052E+08,  1.585271931431210E+08,
2395776.500000000, A.D. 1847-Apr-25 00:00:00.0000, -5.534121006674160E+08,  4.973046727400416E+08,  1.370194253789973E+08,
2395836.500000000, A.D. 1847-Jun-24 00:00:00.0000, -5.977136278747400E+08,  4.482229176083915E+08,  1.143834684683260E+08,
2395896.500000000, A.D. 1847-Aug-23 00:00:00.0000, -6.370754204906468E+08,  3.954370247783208E+08,  9.080316388619339E+07,
2395956.500000000, A.D. 1847-Oct-22 00:00:00.0000, -6.711613262825334E+08,  3.393766694231898E+08,  6.647192557178945E+07,
2396016.500000000, A.D. 1847-Dec-21 00:00:00.0000, -6.996826539871854E+08,  2.805030211039572E+08,  4.159068617131330E+07,
2396076.500000000, A.D. 1848-Feb-19 00:00:00.0000, -7.224015508762341E+08,  2.193037918514872E+08,  1.636571433020447E+07,
2396136.500000000, A.D. 1848-Apr-19 00:00:00.0000, -7.391336650268921E+08,  1.562878766769434E+08, -8.993656277922405E+06,
2396196.500000000, A.D. 1848-Jun-18 00:00:00.0000, -7.497500329815251E+08,  9.197970343225423E+07, -3.427733625310773E+07,
2396256.500000000, A.D. 1848-Aug-17 00:00:00.0000, -7.541781515568900E+08,  2.691340229827196E+07, -5.927678193732118E+07,
2396316.500000000, A.D. 1848-Oct-16 00:00:00.0000, -7.524022294504374E+08, -3.837308908868320E+07, -8.378724539465857E+07,
2396376.500000000, A.D. 1848-Dec-15 00:00:00.0000, -7.444626449243975E+08, -1.033438587948940E+08, -1.076099286368779E+08,
2396436.500000000, A.D. 1849-Feb-13 00:00:00.0000, -7.304546285682929E+08, -1.674706785766979E+08, -1.305539990236247E+08,
2396496.500000000, A.D. 1849-Apr-14 00:00:00.0000, -7.105262345069404E+08, -2.302383903727715E+08, -1.524384367754523E+08,
2396556.500000000, A.D. 1849-Jun-13 00:00:00.0000, -6.848756756696056E+08, -2.911499304965732E+08, -1.730936873009367E+08,
2396616.500000000, A.D. 1849-Aug-12 00:00:00.0000, -6.537481162565229E+08, -3.497309136025377E+08, -1.923630973253567E+08,
2396676.500000000, A.D. 1849-Oct-11 00:00:00.0000, -6.174319931055233E+08, -4.055337179617610E+08, -2.101041181341183E+08,
2396736.500000000, A.D. 1849-Dec-10 00:00:00.0000, -5.762549844064564E+08, -4.581410458119736E+08, -2.261892792069067E+08,
